HST                     
1 20580U 90037B   25065.53429201  .00008779  00000+0  34928-3 0  9997
2 20580  28.4692  19.9387 0002016  29.0281 331.0425 15.23465156717007
POLAR                   
1 23802U 96013A   25065.52504903  .00000272  00000+0  00000+0 0  9999
2 23802  79.3540 232.0877 6041773 224.8546  66.5884  1.29846512138763
SWAS                    
1 25560U 98071A   25065.52294392  .00007599  00000+0  54288-3 0  9996
2 25560  69.8992 349.3901 0009887 258.4895 101.5157 15.04830041426799
CXO                     
1 25867U 99040B   25063.66024806  .00000945  00000+0  00000+0 0  9994
2 25867  47.1628 135.0530 8579164 307.4424   0.5388  0.37810766 15546
XMM-NEWTON              
1 25989U 99066A   25067.66058773  .00000099  00000+0  00000+0 0  9991
2 25989  66.6931 289.1658 4920429  72.9804 359.9335  0.50133663 20663
TERRA                   
1 25994U 99068A   25065.75764381  .00000760  00000+0  16590-3 0  9996
2 25994  98.0115 127.1519 0001042 244.5641 210.3668 14.60514745341364
CLUSTER II-FM7 (SAMBA)  
1 26410U 00041A   25066.62468146  .00000718  00000+0  00000+0 0  9998
2 26410 142.7921   6.8110 8149679 222.0689 359.9678  0.44815339 29971
CLUSTER II-FM8 (TANGO)  
1 26464U 00045B   25062.86432864  .00000978  00000+0  00000+0 0  9999
2 26464 142.9515   6.9343 8144104 222.0597 359.7062  0.44416677 18207
ODIN                    
1 26702U 01007A   25065.63882817  .00020064  00000+0  58966-3 0  9994
2 26702  97.4588  87.6939 0008303  77.1133 283.1037 15.35116508316995
TIMED                   
1 26998U 01055B   25065.61746255  .00002131  00000+0  20644-3 0  9994
2 26998  74.0681  95.2250 0001428 316.3690  43.7380 14.93430179260978
INTEGRAL                
1 27540U 02048A   25061.01365912  .00000285  00000+0  00000+0 0  9996
2 27540  90.9361   8.9528 8608969 274.5012   5.0938  0.37579353 24853
CORIOLIS                
1 27640U 03001A   25065.63043177  .00000255  00000+0  14109-3 0  9991
2 27640  98.7158  74.7015 0015098 117.5688 242.7024 14.19730253147875
SORCE                   
1 27651U 03004A   25065.64072792  .00005874  00000+0  48156-3 0  9993
2 27651  39.9931  41.1076 0020589 290.7318  69.1268 14.99347826201592
MOST                    
1 27843U 03031D   25065.61297348  .00000180  00000+0  10285-3 0  9996
2 27843  98.7089  74.8548 0010308 156.5293 203.6356 14.21162359124293
SCISAT 1                
1 27858U 03036A   25065.57584678  .00001643  00000+0  21957-3 0  9990
2 27858  73.9320  19.7632 0008067 201.7962 158.2872 14.80417488162223
SWIFT                   
1 28485U 04047A   25065.71016112  .00024989  00000+0  74541-3 0  9994
2 28485  20.5558  83.7423 0006450 111.0421 249.0708 15.32656393114319
CALIPSO                 
1 29108U 06016B   25065.78854005  .00001098  00000+0  20189-3 0  9998
2 29108  98.4449  60.9471 0001199  75.5866 284.5470 14.67745601  4458
HINODE (SOLAR-B)        
1 29479U 06041A   25065.66009876  .00001249  00000+0  22799-3 0  9999
2 29479  98.0792  83.3847 0017002 334.7508  25.2864 14.67616102986263
SHIJIAN-6 02A (SJ-6 02A)
1 29505U 06046A   25065.72163662  .00008125  00000+0  50963-3 0  9999
2 29505  97.6952  98.9958 0002283 327.4084  32.7004 15.09582955  1569
SHIJIAN-6 02B (SJ-6 02B)
1 29506U 06046B   25065.70787159  .00002065  00000+0  17409-3 0  9996
2 29506  97.7202  94.1507 0003237  98.9961 261.1629 14.99263525   647
FGRST (GLAST)           
1 33053U 08029A   25065.69517046  .00005435  00000+0  22893-3 0  9992
2 33053  25.5808 201.7425 0008731 221.7018 138.2854 15.20220911924521
SDO                     
1 36395U 10005A   25065.30210252 -.00000083  00000+0  00000+0 0  9995
2 36395  33.6684  93.5035 0001106 194.4496 243.2311  1.00274971 55342
CRYOSAT 2               
1 36508U 10013A   25065.73465508  .00000390  00000+0  96109-4 0  9993
2 36508  92.0193 164.4611 0003651  99.5609 260.6011 14.51905603790257
X-SAT                   
1 37389U 11015C   25065.76356103  .00000271  00000+0  13321-3 0  9999
2 37389  98.3079  61.4810 0012825 276.6365  83.3356 14.24975826721108
GCOM-W1 (SHIZUKU)       
1 38337U 12025A   25065.73702943  .00001186  00000+0  27313-3 0  9991
2 38337  98.2041   8.0932 0002194  79.3399 342.3823 14.57113520680961
NUSTAR                  
1 38358U 12031A   25065.75003472  .00004089  00000+0  24281-3 0  9990
2 38358   6.0257 283.3628 0008992  19.1314 341.4283 15.02107862  4087
NEOSSAT                 
1 39089U 13009D   25065.77914154  .00000393  00000+0  15131-3 0  9996
2 39089  98.4057 252.3385 0010776 194.1843 165.9042 14.35526714629678
BRITE-AUSTRIA           
1 39091U 13009F   25065.51872074  .00000420  00000+0  15861-3 0  9996
2 39091  98.3868 251.9771 0010052 190.5680 169.5297 14.36214163629912
IRIS                    
1 39197U 13033A   25065.62849786  .00002431  00000+0  29615-3 0  9992
2 39197  97.9564 261.1897 0026034  48.4555 311.8886 14.84109422630987
HISAKI (SPRINT-A)       
1 39253U 13049A   25065.74250160  .00000120  00000+0  72292-4 0  9990
2 39253  29.7201  76.3978 0136835 187.3087 172.5483 13.55472127567954
CASSIOPE                
1 39265U 13055A   25065.72481820  .00042345  00000+0  71657-3 0  9995
2 39265  80.9416 258.9956 0417885 159.1233 202.7636 14.90999877597220
STSAT-3                 
1 39422U 13066G   25065.75780527  .00004860  00000+0  40786-3 0  9990
2 39422  97.5563  41.6988 0018646 190.3101 169.7743 14.98672181614097
SWARM B                 
1 39451U 13067A   25065.79342057  .00004474  00000+0  18227-3 0  9995
2 39451  87.7458 123.8640 0003008  91.8951 268.2640 15.24216252611940
SWARM A                 
1 39452U 13067B   25065.70110716  .00012269  00000+0  30917-3 0  9993
2 39452  87.3390 228.0286 0002225  95.0746 265.0763 15.39754620634054
SWARM C                 
1 39453U 13067C   25065.70101892  .00012611  00000+0  31780-3 0  9999
2 39453  87.3392 226.6188 0002192  94.7972 265.3533 15.39754108634017
BRITE-CA1 (TORONTO)     
1 40020U 14033L   25065.64188869  .00001653  00000+0  26354-3 0  9992
2 40020  97.9085 200.4328 0080131 334.1136  25.6071 14.71168486573438
OCO 2                   
1 40059U 14035A   25065.72164329  .00001068  00000+0  24673-3 0  9992
2 40059  98.2098   8.8670 0001729  78.7555 281.3837 14.57178511567977
BRITE-PL2 (HEWELIUSZ)   
1 40119U 14049B   25065.67227165  .00003358  00000+0  33823-3 0  9997
2 40119  97.8822 170.7997 0014390 215.3040 144.7226 14.91775950571675
MMS 1                   
1 40482U 15011A   25065.75003472 -.00002531  00000+0  00000+0 0  9992
2 40482  61.4892 357.9627 8816194 157.2279  28.2743  0.28509096  1353
MMS 2                   
1 40483U 15011B   25065.75003472 -.00002537  00000+0  00000+0 0  9999
2 40483  61.4758 357.9611 8823158 157.1926  28.0891  0.28485999  1351
MMS 3                   
1 40484U 15011C   25065.75003472 -.00002534  00000+0  00000+0 0  9997
2 40484  61.4949 357.9595 8819321 157.2031  28.1548  0.28495465  1359
MMS 4                   
1 40485U 15011D   25065.75003472 -.00002534  00000+0  00000+0 0  9998
2 40485  61.4596 357.9704 8819422 157.1875  18.4809  0.28501702  1351
ASTROSAT                
1 40930U 15052A   25064.25031142  .00003092  00000+0  30603-3 0  9992
2 40930   5.9963 287.2098 0008410 189.7275 170.2690 14.80985205510157
DAMPE                   
1 41173U 15078A   25065.72621426  .00002522  00000+0  92320-4 0  9995
2 41173  97.4472  64.7623 0010756 297.8296  62.1853 15.28944055513075
PISAT                   
1 41784U 16059B   25065.59619378  .00001888  00000+0  33916-3 0  9990
2 41784  97.8219  81.6977 0028292 257.6699 102.1338 14.67531073451125
HXMT (HUIYAN)           
1 42758U 17034A   25065.72578675  .00007777  00000+0  44932-3 0  9998
2 42758  43.0134 254.2771 0035849  74.9011 285.5797 15.12138940426731
FLYING LAPTOP           
1 42831U 17042G   25065.76140088  .00004715  00000+0  40368-3 0  9994
2 42831  97.3978 238.1838 0010290 271.3913  88.6131 14.97982844416402
ZHANGHENG 1 (CSES)      
1 43194U 18015C   25065.66292486  .00015873  00000+0  71041-3 0  9996
2 43194  97.6354 218.4536 0009535  56.3112 303.9031 15.21329445393589
SALSAT                  
1 46495U 20068K   25065.66774819  .00011470  00000+0  52784-3 0  9991
2 46495  97.8521  39.5087 0013917 125.0372 235.2170 15.20416469244092
IXPE                    
1 49954U 21121A   25065.75003472  .00010804  00000+0  70062-3 0  9994
2 49954   0.2285 236.3827 0007817 235.0953  79.2591 15.03855882  5048
